[{"OBJECT_NAME":"GEESAT-1 03","OBJECT_ID":"2022-058C","EPOCH":"2026-03-09T22:14:40.890624","MEAN_MOTION":14.81007855,"ECCENTRICITY":0.00085744,"INCLINATION":49.9869,"RA_OF_ASC_NODE":299.7347,"ARG_OF_PERICENTER":85.2975,"MEAN_ANOMALY":274.8941,"EPHEMERIS_TYPE":0,"CLASSIFICATION_TYPE":"U","NORAD_CAT_ID":52787,"ELEMENT_SET_NO":999,"REV_AT_EPOCH":20522,"BSTAR":0.00036442214,"MEAN_MOTION_DOT":2.633e-5,"MEAN_MOTION_DDOT":0},{"OBJECT_NAME":"NOAA 16 DEB","OBJECT_ID":"2000-055RX","EPOCH":"2026-03-08T00:25:26.326848","MEAN_MOTION":14.76862855,"ECCENTRICITY":0.00219792,"INCLINATION":98.9311,"RA_OF_ASC_NODE":270.5735,"ARG_OF_PERICENTER":48.8979,"MEAN_ANOMALY":311.4121,"EPHEMERIS_TYPE":0,"CLASSIFICATION_TYPE":"U","NORAD_CAT_ID":42379,"ELEMENT_SET_NO":999,"REV_AT_EPOCH":52128,"BSTAR":0.0055241126,"MEAN_MOTION_DOT":0.00039117,"MEAN_MOTION_DDOT":0}]
